start=new Date('2022-07-17T00:00:00.000Z').valueOf();
sats=[{"PERIAPSIS":"546.185","OBJECT_NAME":"STARLINK-1583","CLASSIFICATION_TYPE":"U","MEAN_MOTION":"15.06416878","PERIOD":"95.591","OBJECT_ID":"2020-055AP","GP_ID":"208267896","EPOCH":"2022-07-16T19:02:43.023264","SEMIMAJOR_AXIS":"6925.297","MEAN_ANOMALY":"275.1881","MEAN_MOTION_DOT":"0.00008433","REV_AT_EPOCH":"10828","RCS_SIZE":"LARGE","REF_FRAME":"TEME","INCLINATION":"53.0546","CENTER_NAME":"EARTH","SITE":"AFETR","OBJECT_TYPE":"PAYLOAD","BSTAR":"0.00058407000000","EPHEMERIS_TYPE":"0","APOAPSIS":"548.139","COUNTRY_CODE":"US","ECCENTRICITY":"0.00014110","RA_OF_ASC_NODE":"335.7352","ARG_OF_PERICENTER":"84.9269","TLE_LINE2":"2 46064  53.0546 335.7352 0001411  84.9269 275.1881 15.06416878108285","MEAN_ELEMENT_THEORY":"SGP4","TIME_SYSTEM":"UTC","LAUNCH_DATE":"2020-08-07","ELEMENT_SET_NO":"999","MEAN_MOTION_DDOT":"0.0000000000000","FILE":"3515618","DECAY_DATE":null,"TLE_LINE1":"1 46064U 20055AP  22197.79355351  .00008433  00000-0  58407-3 0  9996","NORAD_CAT_ID":"46064"},{"MEAN_ELEMENT_THEORY":"SGP4","TLE_LINE2":"2 46065  53.0557 316.3599 0001383  79.1353 280.9791 15.06408983108523","LAUNCH_DATE":"2020-08-07","TIME_SYSTEM":"UTC","COUNTRY_CODE":"US","ARG_OF_PERICENTER":"79.1353","ECCENTRICITY":"0.00013830","RA_OF_ASC_NODE":"316.3599","TLE_LINE1":"1 46065U 20055AQ  22197.65437412  .00005425  00000-0  38274-3 0  9999","DECAY_DATE":null,"NORAD_CAT_ID":"46065","ELEMENT_SET_NO":"999","FILE":"3515618","MEAN_MOTION_DDOT":"0.0000000000000","SEMIMAJOR_AXIS":"6925.321","EPOCH":"2022-07-16T15:42:17.923968","GP_ID":"208269147","REV_AT_EPOCH":"10852","RCS_SIZE":"LARGE","MEAN_MOTION_DOT":"0.00005425","MEAN_ANOMALY":"280.9791","OBJECT_NAME":"STARLINK-1515","PERIAPSIS":"546.228","OBJECT_ID":"2020-055AQ","PERIOD":"95.592","MEAN_MOTION":"15.06408983","CLASSIFICATION_TYPE":"U","OBJECT_TYPE":"PAYLOAD","APOAPSIS":"548.144","BSTAR":"0.00038274000000","EPHEMERIS_TYPE":"0","REF_FRAME":"TEME","SITE":"AFETR","CENTER_NAME":"EARTH","INCLINATION":"53.0557"},{"MEAN_ELEMENT_THEORY":"SGP4","TLE_LINE2":"2 46066  53.0552 315.7536 0001734  72.5291 287.5887 15.06409411108550","LAUNCH_DATE":"2020-08-07","TIME_SYSTEM":"UTC","COUNTRY_CODE":"US","ARG_OF_PERICENTER":"72.5291","ECCENTRICITY":"0.00017340","RA_OF_ASC_NODE":"315.7536","TLE_LINE1":"1 46066U 20055AR  22197.79169714  .00003077  00000-0  22534-3 0  9995","DECAY_DATE":null,"NORAD_CAT_ID":"46066","ELEMENT_SET_NO":"999","FILE":"3515618","MEAN_MOTION_DDOT":"0.0000000000000","SEMIMAJOR_AXIS":"6925.320","EPOCH":"2022-07-16T19:00:02.632896","GP_ID":"208268888","REV_AT_EPOCH":"10855","RCS_SIZE":"LARGE","MEAN_MOTION_DOT":"0.00003077","MEAN_ANOMALY":"287.5887","OBJECT_NAME":"STARLINK-1525","PERIAPSIS":"545.984","PERIOD":"95.592","OBJECT_ID":"2020-055AR","MEAN_MOTION":"15.06409411","CLASSIFICATION_TYPE":"U","OBJECT_TYPE":"PAYLOAD","APOAPSIS":"548.386","EPHEMERIS_TYPE":"0","BSTAR":"0.00022534000000","REF_FRAME":"TEME","SITE":"AFETR","CENTER_NAME":"EARTH","INCLINATION":"53.0552"},{"PERIAPSIS":"546.088","OBJECT_NAME":"STARLINK-1529","CLASSIFICATION_TYPE":"U","MEAN_MOTION":"15.06406695","PERIOD":"95.592","OBJECT_ID":"2020-055AS","GP_ID":"208267646","EPOCH":"2022-07-16T17:28:27.014016","SEMIMAJOR_AXIS":"6925.328","MEAN_MOTION_DOT":"0.00000581","MEAN_ANOMALY":"276.4859","REV_AT_EPOCH":"10855","RCS_SIZE":"LARGE","REF_FRAME":"TEME","CENTER_NAME":"EARTH","INCLINATION":"53.0550","SITE":"AFETR","OBJECT_TYPE":"PAYLOAD","BSTAR":"0.00005786600000","EPHEMERIS_TYPE":"0","APOAPSIS":"548.298","COUNTRY_CODE":"US","ECCENTRICITY":"0.00015960","RA_OF_ASC_NODE":"316.0195","ARG_OF_PERICENTER":"83.6311","TLE_LINE2":"2 46067  53.0550 316.0195 0001596  83.6311 276.4859 15.06406695108553","MEAN_ELEMENT_THEORY":"SGP4","TIME_SYSTEM":"UTC","LAUNCH_DATE":"2020-08-07","ELEMENT_SET_NO":"999","MEAN_MOTION_DDOT":"0.0000000000000","FILE":"3515618","DECAY_DATE":null,"TLE_LINE1":"1 46067U 20055AS  22197.72809044  .00000581  00000-0  57866-4 0  9990","NORAD_CAT_ID":"46067"},{"RCS_SIZE":"LARGE","REV_AT_EPOCH":"10856","MEAN_MOTION_DOT":"0.00004453","MEAN_ANOMALY":"294.7030","GP_ID":"208268396","SEMIMAJOR_AXIS":"6925.317","EPOCH":"2022-07-16T19:19:55.101504","MEAN_MOTION":"15.06410193","CLASSIFICATION_TYPE":"U","PERIOD":"95.591","OBJECT_ID":"2020-055AT","PERIAPSIS":"546.140","OBJECT_NAME":"STARLINK-1532","APOAPSIS":"548.225","EPHEMERIS_TYPE":"0","BSTAR":"0.00031756000000","OBJECT_TYPE":"PAYLOAD","INCLINATION":"53.0556","CENTER_NAME":"EARTH","SITE":"AFETR","REF_FRAME":"TEME","LAUNCH_DATE":"2020-08-07","TIME_SYSTEM":"UTC","MEAN_ELEMENT_THEORY":"SGP4","TLE_LINE2":"2 46068  53.0556 315.6724 0001505  65.4115 294.7030 15.06410193108566","ARG_OF_PERICENTER":"65.4115","ECCENTRICITY":"0.00015050","RA_OF_ASC_NODE":"315.6724","COUNTRY_CODE":"US","NORAD_CAT_ID":"46068","TLE_LINE1":"1 46068U 20055AT  22197.80549886  .00004453  00000-0  31756-3 0  9996","DECAY_DATE":null,"FILE":"3515618","MEAN_MOTION_DDOT":"0.0000000000000","ELEMENT_SET_NO":"999"},{"ELEMENT_SET_NO":"999","FILE":"3515618","MEAN_MOTION_DDOT":"0.0000000000000","TLE_LINE1":"1 46069U 20055AU  22197.62214426 -.00002582  00000-0 -15444-3 0  9995","DECAY_DATE":null,"NORAD_CAT_ID":"46069","COUNTRY_CODE":"US","ARG_OF_PERICENTER":"66.5539","ECCENTRICITY":"0.00009190","RA_OF_ASC_NODE":"316.5075","MEAN_ELEMENT_THEORY":"SGP4","TLE_LINE2":"2 46069  53.0571 316.5075 0000919  66.5539 293.5546 15.06417260108542","LAUNCH_DATE":"2020-08-07","TIME_SYSTEM":"UTC","REF_FRAME":"TEME","INCLINATION":"53.0571","CENTER_NAME":"EARTH","SITE":"AFETR","OBJECT_TYPE":"PAYLOAD","APOAPSIS":"547.797","EPHEMERIS_TYPE":"0","BSTAR":"-0.00015444000000","PERIAPSIS":"546.524","OBJECT_NAME":"STARLINK-1533","MEAN_MOTION":"15.06417260","CLASSIFICATION_TYPE":"U","PERIOD":"95.591","OBJECT_ID":"2020-055AU","GP_ID":"208268648","SEMIMAJOR_AXIS":"6925.296","EPOCH":"2022-07-16T14:55:53.264064","REV_AT_EPOCH":"10854","RCS_SIZE":"LARGE","MEAN_MOTION_DOT":"-0.00002582","MEAN_ANOMALY":"293.5546"},{"OBJECT_ID":"2020-055AV","PERIOD":"95.593","CLASSIFICATION_TYPE":"U","MEAN_MOTION":"15.06390329","OBJECT_NAME":"STARLINK-1536","PERIAPSIS":"546.362","MEAN_ANOMALY":"268.6415","MEAN_MOTION_DOT":"0.00001222","REV_AT_EPOCH":"10856","RCS_SIZE":"LARGE","EPOCH":"2022-07-16T18:28:12.927648","SEMIMAJOR_AXIS":"6925.378","GP_ID":"208269388","SITE":"AFETR","INCLINATION":"53.0545","CENTER_NAME":"EARTH","REF_FRAME":"TEME","BSTAR":"0.00010096000000","EPHEMERIS_TYPE":"0","APOAPSIS":"548.125","OBJECT_TYPE":"PAYLOAD","RA_OF_ASC_NODE":"315.8494","ECCENTRICITY":"0.00012730","ARG_OF_PERICENTER":"91.4720","COUNTRY_CODE":"US","TIME_SYSTEM":"UTC","LAUNCH_DATE":"2020-08-07","TLE_LINE2":"2 46070  53.0545 315.8494 0001273  91.4720 268.6415 15.06390329108561","MEAN_ELEMENT_THEORY":"SGP4","MEAN_MOTION_DDOT":"0.0000000000000","FILE":"3515618","ELEMENT_SET_NO":"999","NORAD_CAT_ID":"46070","DECAY_DATE":null,"TLE_LINE1":"1 46070U 20055AV  22197.76959407  .00001222  00000-0  10096-3 0  9993"},{"OBJECT_TYPE":"PAYLOAD","APOAPSIS":"548.298","EPHEMERIS_TYPE":"0","BSTAR":"0.00053319000000","REF_FRAME":"TEME","SITE":"AFETR","INCLINATION":"53.0558","CENTER_NAME":"EARTH","SEMIMAJOR_AXIS":"6925.339","EPOCH":"2022-07-16T18:54:46.148832","GP_ID":"208268146","REV_AT_EPOCH":"10856","RCS_SIZE":"LARGE","MEAN_ANOMALY":"284.7440","MEAN_MOTION_DOT":"0.00007670","OBJECT_NAME":"STARLINK-1538","PERIAPSIS":"546.111","OBJECT_ID":"2020-055AW","PERIOD":"95.592","MEAN_MOTION":"15.06403114","CLASSIFICATION_TYPE":"U","TLE_LINE1":"1 46071U 20055AW  22197.78803413  .00007670  00000-0  53319-3 0  9999","DECAY_DATE":null,"NORAD_CAT_ID":"46071","ELEMENT_SET_NO":"999","FILE":"3515618","MEAN_MOTION_DDOT":"0.0000000000000","MEAN_ELEMENT_THEORY":"SGP4","TLE_LINE2":"2 46071  53.0558 315.7492 0001579  75.3724 284.7440 15.06403114108561","LAUNCH_DATE":"2020-08-07","TIME_SYSTEM":"UTC","COUNTRY_CODE":"US","ARG_OF_PERICENTER":"75.3724","ECCENTRICITY":"0.00015790","RA_OF_ASC_NODE":"315.7492"},{"CLASSIFICATION_TYPE":"U","MEAN_MOTION":"15.06410343","PERIOD":"95.591","OBJECT_ID":"2020-055AX","PERIAPSIS":"546.214","OBJECT_NAME":"STARLINK-1539","MEAN_ANOMALY":"293.5713","MEAN_MOTION_DOT":"0.00002821","RCS_SIZE":"LARGE","REV_AT_EPOCH":"10856","GP_ID":"208267897","EPOCH":"2022-07-16T21:06:04.871520","SEMIMAJOR_AXIS":"6925.317","CENTER_NAME":"EARTH","INCLINATION":"53.0553","SITE":"AFETR","REF_FRAME":"TEME","BSTAR":"0.00020816000000","EPHEMERIS_TYPE":"0","APOAPSIS":"548.149","OBJECT_TYPE":"PAYLOAD","ECCENTRICITY":"0.00013970","RA_OF_ASC_NODE":"315.3609","ARG_OF_PERICENTER":"66.5423","COUNTRY_CODE":"US","TIME_SYSTEM":"UTC","LAUNCH_DATE":"2020-08-07","TLE_LINE2":"2 46072  53.0553 315.3609 0001397  66.5423 293.5713 15.06410343108562","MEAN_ELEMENT_THEORY":"SGP4","MEAN_MOTION_DDOT":"0.0000000000000","FILE":"3515618","ELEMENT_SET_NO":"999","NORAD_CAT_ID":"46072","DECAY_DATE":null,"TLE_LINE1":"1 46072U 20055AX  22197.87922305  .00002821  00000-0  20816-3 0  9991"},{"NORAD_CAT_ID":"46073","DECAY_DATE":null,"TLE_LINE1":"1 46073U 20055AY  22197.89490816  .00002897  00000-0  21322-3 0  9997","MEAN_MOTION_DDOT":"0.0000000000000","FILE":"3515618","ELEMENT_SET_NO":"999","TIME_SYSTEM":"UTC","LAUNCH_DATE":"2020-08-07","TLE_LINE2":"2 46073  53.0536 315.2922 0001456  66.7875 293.3267 15.06408588108571","MEAN_ELEMENT_THEORY":"SGP4","ECCENTRICITY":"0.00014560","RA_OF_ASC_NODE":"315.2922","ARG_OF_PERICENTER":"66.7875","COUNTRY_CODE":"US","BSTAR":"0.00021322000000","EPHEMERIS_TYPE":"0","APOAPSIS":"548.196","OBJECT_TYPE":"PAYLOAD","CENTER_NAME":"EARTH","INCLINATION":"53.0536","SITE":"AFETR","REF_FRAME":"TEME","MEAN_ANOMALY":"293.3267","MEAN_MOTION_DOT":"0.00002897","RCS_SIZE":"LARGE","REV_AT_EPOCH":"10857","GP_ID":"208269148","EPOCH":"2022-07-16T21:28:40.065024","SEMIMAJOR_AXIS":"6925.322","CLASSIFICATION_TYPE":"U","MEAN_MOTION":"15.06408588","PERIOD":"95.592","OBJECT_ID":"2020-055AY","PERIAPSIS":"546.179","OBJECT_NAME":"STARLINK-1542"}];
